[
    {
        "Altitude(m)": 622205.9034484584,
        "Argument of Periapsis(deg)": 0.0,
        "Eccentricity": 0.0,
        "Inclination(deg)": 60.0,
        "Latitude(deg)": -52.1625346582313,
        "Longitude(deg)": -67.29955166815749,
        "Mean Anomaly(deg)": -114.54550000000005,
        "RAAN(deg)": 165.0,
        "Satellite Name": "Test1 741",
        "Satellite Number": 741,
        "Semi-Major Axis(m)": 6980739.136638005,
        "Time(s)": 0
    },
    {
        "Altitude(m)": 622344.8096627626,
        "Argument of Periapsis(deg)": 0.00010418945913296404,
        "Eccentricity": 0.0,
        "Inclination(deg)": 60.0,
        "Latitude(deg)": -52.52011366290728,
        "Longitude(deg)": -66.51833685139006,
        "Mean Anomaly(deg)": -113.92539385453819,
        "RAAN(deg)": 164.99957995086024,
        "Satellite Name": "Test1 741",
        "Satellite Number": 741,
        "Semi-Major Axis(m)": 6980739.136638005,
        "Time(s)": 10
    }
]